[{"OBJECT_NAME":"SAUDISAT 5B","OBJECT_ID":"2018-102C","EPOCH":"2026-03-09T22:59:17.457216","MEAN_MOTION":15.27248504,"ECCENTRICITY":0.00120577,"INCLINATION":97.3281,"RA_OF_ASC_NODE":135.3629,"ARG_OF_PERICENTER":124.0958,"MEAN_ANOMALY":236.1427,"EPHEMERIS_TYPE":0,"CLASSIFICATION_TYPE":"U","NORAD_CAT_ID":43833,"ELEMENT_SET_NO":999,"REV_AT_EPOCH":40064,"BSTAR":0.00024926623,"MEAN_MOTION_DOT":6.596e-5,"MEAN_MOTION_DDOT":0},{"OBJECT_NAME":"STARLINK-35884","OBJECT_ID":"2025-294Q","EPOCH":"2026-03-09T22:49:23.966112","MEAN_MOTION":15.27590416,"ECCENTRICITY":7.907e-5,"INCLINATION":42.9978,"RA_OF_ASC_NODE":36.2104,"ARG_OF_PERICENTER":155.0667,"MEAN_ANOMALY":205.0223,"EPHEMERIS_TYPE":0,"CLASSIFICATION_TYPE":"U","NORAD_CAT_ID":67044,"ELEMENT_SET_NO":999,"REV_AT_EPOCH":1484,"BSTAR":0.00099283371,"MEAN_MOTION_DOT":0.00027168,"MEAN_MOTION_DDOT":0}]
